HULIANWANG DIGUI-01     
1 62323U 24240A   26062.83521704  .00000055  00000+0  93926-4 0  9996
2 62323  86.5027  18.7551 0001935  86.3016 273.8339 13.24420434 58695
HULIANWANG DIGUI-02     
1 62324U 24240B   26062.84267995  .00000050  00000+0  82973-4 0  9992
2 62324  86.5056  18.8821 0001855  89.9718 270.1628 13.24422074 58703
HULIANWANG DIGUI-03     
1 62325U 24240C   26062.82754738  .00000065  00000+0  11680-3 0  9999
2 62325  86.5010  18.6775 0002017  85.2313 274.9051 13.24422003 58693
HULIANWANG DIGUI-04     
1 62326U 24240D   26062.82002544  .00000065  00000+0  11844-3 0  9993
2 62326  86.5018  18.7115 0002053  85.9030 274.2339 13.24421675 58690
HULIANWANG DIGUI-05     
1 62327U 24240E   26062.81251812  .00000055  00000+0  93394-4 0  9997
2 62327  86.5070  18.9328 0002082  84.9962 275.1410 13.24420875 58693
HULIANWANG DIGUI-06     
1 62328U 24240F   26062.79731056  .00000040  00000+0  60025-4 0  9997
2 62328  86.5008  18.6576 0002021  89.6245 270.5121 13.24422811 58696
HULIANWANG DIGUI-07     
1 62329U 24240G   26062.78985053  .00000043  00000+0  65913-4 0  9999
2 62329  86.4979  18.5288 0002004  87.8856 272.2507 13.24420974 58696
HULIANWANG DIGUI-08     
1 62330U 24240H   26062.80497989  .00000047  00000+0  74726-4 0  9996
2 62330  86.5062  18.8929 0002120  86.4331 273.7045 13.24420793 58691
HULIANWANG DIGUI-09     
1 62331U 24240J   26062.78222552  .00000026  00000+0  26057-4 0  9997
2 62331  86.5028  18.7962 0001957  89.7476 270.3882 13.24422174 58689
HULIANWANG DIGUI-10     
1 62332U 24240K   26062.85025815  .00000027  00000+0  28952-4 0  9996
2 62332  86.5059  18.8954 0001947  91.7848 268.3509 13.24421582 58697
HULIANWANG DIGUI-11     
1 62971U 25030A   26062.75855910 -.00000093  00000+0  66118-4 0  9999
2 62971  49.9993 253.9717 0000751 163.1336 196.9561 13.29337621 51831
HULIANWANG DIGUI-12     
1 62972U 25030B   26062.76680219 -.00000094  00000+0  64257-4 0  9992
2 62972  50.0008 254.0611 0000875 157.2248 202.8663 13.29339806 51837
HULIANWANG DIGUI-13     
1 62973U 25030C   26062.75017370 -.00000103  00000+0  45924-4 0  9995
2 62973  50.0012 253.9863 0000700 148.7299 211.3615 13.29337702 51833
HULIANWANG DIGUI-14     
1 62974U 25030D   26062.72517248 -.00000087  00000+0  80184-4 0  9990
2 62974  50.0017 253.8741 0000807 149.4417 210.6502 13.29337557 51836
HULIANWANG DIGUI-15     
1 62975U 25030E   26062.74185567 -.00000097  00000+0  58479-4 0  9991
2 62975  50.0012 253.9456 0000688 155.9486 204.1419 13.29337670 51832
HULIANWANG DIGUI-16     
1 62976U 25030F   26062.71676954 -.00000089  00000+0  76341-4 0  9993
2 62976  50.0034 253.8830 0000802 146.4488 213.6435 13.29338296 51835
