[{"OBJECT_NAME":"HULIANWANG DIGUI-01","OBJECT_ID":"2024-240A","EPOCH":"2026-03-03T20:02:42.752256","MEAN_MOTION":13.24420434,"ECCENTRICITY":0.0001935,"INCLINATION":86.5027,"RA_OF_ASC_NODE":18.7551,"ARG_OF_PERICENTER":86.3016,"MEAN_ANOMALY":273.8339,"EPHEMERIS_TYPE":0,"CLASSIFICATION_TYPE":"U","NORAD_CAT_ID":62323,"ELEMENT_SET_NO":999,"REV_AT_EPOCH":5869,"BSTAR":9.3926e-5,"MEAN_MOTION_DOT":5.5e-7,"MEAN_MOTION_DDOT":0},{"OBJECT_NAME":"HULIANWANG DIGUI-02","OBJECT_ID":"2024-240B","EPOCH":"2026-03-03T20:13:27.547680","MEAN_MOTION":13.24422074,"ECCENTRICITY":0.0001855,"INCLINATION":86.5056,"RA_OF_ASC_NODE":18.8821,"ARG_OF_PERICENTER":89.9718,"MEAN_ANOMALY":270.1628,"EPHEMERIS_TYPE":0,"CLASSIFICATION_TYPE":"U","NORAD_CAT_ID":62324,"ELEMENT_SET_NO":999,"REV_AT_EPOCH":5870,"BSTAR":8.2973e-5,"MEAN_MOTION_DOT":5.0e-7,"MEAN_MOTION_DDOT":0},{"OBJECT_NAME":"HULIANWANG DIGUI-03","OBJECT_ID":"2024-240C","EPOCH":"2026-03-03T19:51:40.093632","MEAN_MOTION":13.24422003,"ECCENTRICITY":0.0002017,"INCLINATION":86.501,"RA_OF_ASC_NODE":18.6775,"ARG_OF_PERICENTER":85.2313,"MEAN_ANOMALY":274.9051,"EPHEMERIS_TYPE":0,"CLASSIFICATION_TYPE":"U","NORAD_CAT_ID":62325,"ELEMENT_SET_NO":999,"REV_AT_EPOCH":5869,"BSTAR":0.0001168,"MEAN_MOTION_DOT":6.5e-7,"MEAN_MOTION_DDOT":0},{"OBJECT_NAME":"HULIANWANG DIGUI-04","OBJECT_ID":"2024-240D","EPOCH":"2026-03-03T19:40:50.198016","MEAN_MOTION":13.24421675,"ECCENTRICITY":0.0002053,"INCLINATION":86.5018,"RA_OF_ASC_NODE":18.7115,"ARG_OF_PERICENTER":85.903,"MEAN_ANOMALY":274.2339,"EPHEMERIS_TYPE":0,"CLASSIFICATION_TYPE":"U","NORAD_CAT_ID":62326,"ELEMENT_SET_NO":999,"REV_AT_EPOCH":5869,"BSTAR":0.00011844,"MEAN_MOTION_DOT":6.5e-7,"MEAN_MOTION_DDOT":0},{"OBJECT_NAME":"HULIANWANG DIGUI-05","OBJECT_ID":"2024-240E","EPOCH":"2026-03-03T19:30:01.565568","MEAN_MOTION":13.24420875,"ECCENTRICITY":0.0002082,"INCLINATION":86.507,"RA_OF_ASC_NODE":18.9328,"ARG_OF_PERICENTER":84.9962,"MEAN_ANOMALY":275.141,"EPHEMERIS_TYPE":0,"CLASSIFICATION_TYPE":"U","NORAD_CAT_ID":62327,"ELEMENT_SET_NO":999,"REV_AT_EPOCH":5869,"BSTAR":9.3394e-5,"MEAN_MOTION_DOT":5.5e-7,"MEAN_MOTION_DDOT":0},{"OBJECT_NAME":"HULIANWANG DIGUI-06","OBJECT_ID":"2024-240F","EPOCH":"2026-03-03T19:08:07.632384","MEAN_MOTION":13.24422811,"ECCENTRICITY":0.0002021,"INCLINATION":86.5008,"RA_OF_ASC_NODE":18.6576,"ARG_OF_PERICENTER":89.6245,"MEAN_ANOMALY":270.5121,"EPHEMERIS_TYPE":0,"CLASSIFICATION_TYPE":"U","NORAD_CAT_ID":62328,"ELEMENT_SET_NO":999,"REV_AT_EPOCH":5869,"BSTAR":6.0025e-5,"MEAN_MOTION_DOT":4.0e-7,"MEAN_MOTION_DDOT":0},{"OBJECT_NAME":"HULIANWANG DIGUI-07","OBJECT_ID":"2024-240G","EPOCH":"2026-03-03T18:57:23.085792","MEAN_MOTION":13.24420974,"ECCENTRICITY":0.0002004,"INCLINATION":86.4979,"RA_OF_ASC_NODE":18.5288,"ARG_OF_PERICENTER":87.8856,"MEAN_ANOMALY":272.2507,"EPHEMERIS_TYPE":0,"CLASSIFICATION_TYPE":"U","NORAD_CAT_ID":62329,"ELEMENT_SET_NO":999,"REV_AT_EPOCH":5869,"BSTAR":6.5913e-5,"MEAN_MOTION_DOT":4.3e-7,"MEAN_MOTION_DDOT":0},{"OBJECT_NAME":"HULIANWANG DIGUI-08","OBJECT_ID":"2024-240H","EPOCH":"2026-03-03T19:19:10.262496","MEAN_MOTION":13.24420793,"ECCENTRICITY":0.000212,"INCLINATION":86.5062,"RA_OF_ASC_NODE":18.8929,"ARG_OF_PERICENTER":86.4331,"MEAN_ANOMALY":273.7045,"EPHEMERIS_TYPE":0,"CLASSIFICATION_TYPE":"U","NORAD_CAT_ID":62330,"ELEMENT_SET_NO":999,"REV_AT_EPOCH":5869,"BSTAR":7.4726e-5,"MEAN_MOTION_DOT":4.7e-7,"MEAN_MOTION_DDOT":0},{"OBJECT_NAME":"HULIANWANG DIGUI-09","OBJECT_ID":"2024-240J","EPOCH":"2026-03-03T18:46:24.284928","MEAN_MOTION":13.24422174,"ECCENTRICITY":0.0001957,"INCLINATION":86.5028,"RA_OF_ASC_NODE":18.7962,"ARG_OF_PERICENTER":89.7476,"MEAN_ANOMALY":270.3882,"EPHEMERIS_TYPE":0,"CLASSIFICATION_TYPE":"U","NORAD_CAT_ID":62331,"ELEMENT_SET_NO":999,"REV_AT_EPOCH":5868,"BSTAR":2.6057e-5,"MEAN_MOTION_DOT":2.6e-7,"MEAN_MOTION_DDOT":0},{"OBJECT_NAME":"HULIANWANG DIGUI-10","OBJECT_ID":"2024-240K","EPOCH":"2026-03-03T20:24:22.304160","MEAN_MOTION":13.24421582,"ECCENTRICITY":0.0001947,"INCLINATION":86.5059,"RA_OF_ASC_NODE":18.8954,"ARG_OF_PERICENTER":91.7848,"MEAN_ANOMALY":268.3509,"EPHEMERIS_TYPE":0,"CLASSIFICATION_TYPE":"U","NORAD_CAT_ID":62332,"ELEMENT_SET_NO":999,"REV_AT_EPOCH":5869,"BSTAR":2.8952e-5,"MEAN_MOTION_DOT":2.7e-7,"MEAN_MOTION_DDOT":0},{"OBJECT_NAME":"HULIANWANG DIGUI-11","OBJECT_ID":"2025-030A","EPOCH":"2026-03-03T18:12:19.506240","MEAN_MOTION":13.29337621,"ECCENTRICITY":7.51e-5,"INCLINATION":49.9993,"RA_OF_ASC_NODE":253.9717,"ARG_OF_PERICENTER":163.1336,"MEAN_ANOMALY":196.9561,"EPHEMERIS_TYPE":0,"CLASSIFICATION_TYPE":"U","NORAD_CAT_ID":62971,"ELEMENT_SET_NO":999,"REV_AT_EPOCH":5183,"BSTAR":6.6118e-5,"MEAN_MOTION_DOT":-9.3e-7,"MEAN_MOTION_DDOT":0},{"OBJECT_NAME":"HULIANWANG DIGUI-12","OBJECT_ID":"2025-030B","EPOCH":"2026-03-03T18:24:11.709216","MEAN_MOTION":13.29339806,"ECCENTRICITY":8.75e-5,"INCLINATION":50.0008,"RA_OF_ASC_NODE":254.0611,"ARG_OF_PERICENTER":157.2248,"MEAN_ANOMALY":202.8663,"EPHEMERIS_TYPE":0,"CLASSIFICATION_TYPE":"U","NORAD_CAT_ID":62972,"ELEMENT_SET_NO":999,"REV_AT_EPOCH":5183,"BSTAR":6.4257e-5,"MEAN_MOTION_DOT":-9.4e-7,"MEAN_MOTION_DDOT":0},{"OBJECT_NAME":"HULIANWANG DIGUI-13","OBJECT_ID":"2025-030C","EPOCH":"2026-03-03T18:00:15.007680","MEAN_MOTION":13.29337702,"ECCENTRICITY":7.0e-5,"INCLINATION":50.0012,"RA_OF_ASC_NODE":253.9863,"ARG_OF_PERICENTER":148.7299,"MEAN_ANOMALY":211.3615,"EPHEMERIS_TYPE":0,"CLASSIFICATION_TYPE":"U","NORAD_CAT_ID":62973,"ELEMENT_SET_NO":999,"REV_AT_EPOCH":5183,"BSTAR":4.5924e-5,"MEAN_MOTION_DOT":-1.03e-6,"MEAN_MOTION_DDOT":0},{"OBJECT_NAME":"HULIANWANG DIGUI-14","OBJECT_ID":"2025-030D","EPOCH":"2026-03-03T17:24:14.902272","MEAN_MOTION":13.29337557,"ECCENTRICITY":8.07e-5,"INCLINATION":50.0017,"RA_OF_ASC_NODE":253.8741,"ARG_OF_PERICENTER":149.4417,"MEAN_ANOMALY":210.6502,"EPHEMERIS_TYPE":0,"CLASSIFICATION_TYPE":"U","NORAD_CAT_ID":62974,"ELEMENT_SET_NO":999,"REV_AT_EPOCH":5183,"BSTAR":8.0184e-5,"MEAN_MOTION_DOT":-8.7e-7,"MEAN_MOTION_DDOT":0},{"OBJECT_NAME":"HULIANWANG DIGUI-15","OBJECT_ID":"2025-030E","EPOCH":"2026-03-03T17:48:16.329888","MEAN_MOTION":13.2933767,"ECCENTRICITY":6.88e-5,"INCLINATION":50.0012,"RA_OF_ASC_NODE":253.9456,"ARG_OF_PERICENTER":155.9486,"MEAN_ANOMALY":204.1419,"EPHEMERIS_TYPE":0,"CLASSIFICATION_TYPE":"U","NORAD_CAT_ID":62975,"ELEMENT_SET_NO":999,"REV_AT_EPOCH":5183,"BSTAR":5.8479e-5,"MEAN_MOTION_DOT":-9.7e-7,"MEAN_MOTION_DDOT":0},{"OBJECT_NAME":"HULIANWANG DIGUI-16","OBJECT_ID":"2025-030F","EPOCH":"2026-03-03T17:12:08.888256","MEAN_MOTION":13.29338296,"ECCENTRICITY":8.02e-5,"INCLINATION":50.0034,"RA_OF_ASC_NODE":253.883,"ARG_OF_PERICENTER":146.4488,"MEAN_ANOMALY":213.6435,"EPHEMERIS_TYPE":0,"CLASSIFICATION_TYPE":"U","NORAD_CAT_ID":62976,"ELEMENT_SET_NO":999,"REV_AT_EPOCH":5183,"BSTAR":7.6341e-5,"MEAN_MOTION_DOT":-8.9e-7,"MEAN_MOTION_DDOT":0}]
